[Satellite]
VERSION=1.1
NAME=HINODE (SOLAR-B)
NICKNAME=HINODE (SOLAR-B)
TLE1=1 29479U 06041A   18020.93596473  .00000031  00000-0  14843-4 0  9997
TLE2=2 29479  98.1690  28.8484 0015907 251.8676 108.0794 14.64888871605260
